GLOBALSTAR M075         
1 37192U 10054E   25171.00731990 -.00000079  00000+0  13855-3 0  9998
2 37192  51.9918 172.9500 0000098  57.4193 331.7072 12.62265858676206
GLOBALSTAR M073         
1 37193U 10054F   25171.51371661 -.00000109  00000+0 -28592-4 0  9990
2 37193  52.0067  85.2288 0000683  38.5390 132.7045 12.62272043678252
GLOBALSTAR M083         
1 37739U 11033A   25171.57641513 -.00000101  00000+0  16192-4 0  9990
2 37739  51.9873  33.7661 0000635  80.7540 314.7948 12.62263956647283
GLOBALSTAR M088         
1 37740U 11033B   25171.62544149 -.00000096  00000+0  45631-4 0  9998
2 37740  52.0061 299.1710 0000781 125.6631 253.4146 12.62265634642831
GLOBALSTAR M091         
1 37741U 11033C   25171.55821814 -.00000100  00000+0  22726-4 0  9994
2 37741  51.9996 262.8716 0000595 161.4664 212.2685 12.62268871643611
GLOBALSTAR M085         
1 37742U 11033D   25171.38639493 -.00000089  00000+0  80787-4 0  9993
2 37742  51.9842 214.4289 0000361 194.9162 178.1432 12.62269482644109
GLOBALSTAR M081         
1 37743U 11033E   25171.09799340 -.00000087  00000+0  92792-4 0  9997
2 37743  51.9937 218.0982 0000178 212.4387 168.1168 12.62266661644219
GLOBALSTAR M089         
1 37744U 11033F   25171.40668719 -.00000082  00000+0  11934-3 0  9991
2 37744  51.9900 171.3826 0000346  41.6178 123.7161 12.62264916645093
